[
    {
        "Altitude(m)": 622205.8441849434,
        "Argument of Periapsis(deg)": 0.0,
        "Eccentricity": 0.0,
        "Inclination(deg)": 60.0,
        "Latitude(deg)": -52.16237109132059,
        "Longitude(deg)": 42.70051983956323,
        "Mean Anomaly(deg)": -114.54549999999998,
        "RAAN(deg)": 275.0,
        "Satellite Name": "Test1 1225",
        "Satellite Number": 1225,
        "Semi-Major Axis(m)": 6980739.136638005,
        "Time(s)": 0
    },
    {
        "Altitude(m)": 622344.7503222935,
        "Argument of Periapsis(deg)": 0.00010418945913296404,
        "Eccentricity": 0.0,
        "Inclination(deg)": 60.0,
        "Latitude(deg)": -52.519949362561476,
        "Longitude(deg)": 43.481732683200235,
        "Mean Anomaly(deg)": -113.9253938545381,
        "RAAN(deg)": 274.9995799508602,
        "Satellite Name": "Test1 1225",
        "Satellite Number": 1225,
        "Semi-Major Axis(m)": 6980739.136638005,
        "Time(s)": 10
    }
]